[{"OBJECT_NAME":"STARLINK-5725","OBJECT_ID":"2023-020AN","EPOCH":"2026-03-09T20:53:22.959168","MEAN_MOTION":15.03742698,"ECCENTRICITY":0.00022746,"INCLINATION":43.0064,"RA_OF_ASC_NODE":350.9238,"ARG_OF_PERICENTER":357.3918,"MEAN_ANOMALY":2.6913,"EPHEMERIS_TYPE":0,"CLASSIFICATION_TYPE":"U","NORAD_CAT_ID":55605,"ELEMENT_SET_NO":999,"REV_AT_EPOCH":16909,"BSTAR":0.0082125021,"MEAN_MOTION_DOT":0.00116267,"MEAN_MOTION_DDOT":0},{"OBJECT_NAME":"DISKSAT C","OBJECT_ID":"2025-305A","EPOCH":"2026-03-09T19:16:32.318976","MEAN_MOTION":15.07852977,"ECCENTRICITY":0.00045341,"INCLINATION":45.0017,"RA_OF_ASC_NODE":250.1278,"ARG_OF_PERICENTER":310.7706,"MEAN_ANOMALY":49.2776,"EPHEMERIS_TYPE":0,"CLASSIFICATION_TYPE":"U","NORAD_CAT_ID":67219,"ELEMENT_SET_NO":999,"REV_AT_EPOCH":1231,"BSTAR":0.00075564202,"MEAN_MOTION_DOT":0.00011541,"MEAN_MOTION_DDOT":0}]
